P/2011 V1 (Boattini),e,7.3751,46.8064,269.3379,3.856348,0.1301487,0.55040865,157.4357,01/24.0/2022,2000,g 15.5,4.0
# From MPC 82718
P/2011 W1 (PANSTARRS),e,3.7185,161.7867,282.7503,4.663245,0.0978750,0.28761849,358.5597,01/24.0/2022,2000,g 11.5,4.0
# From MPC 79342
P/2011 Y2 (Boattini),e,6.3738,309.3521,131.9195,6.239152,0.0632435,0.70980403,228.4979,01/24.0/2022,2000,g 15.0,4.0
# From MPC 94669
P/2012 B1 (PANSTARRS),e,7.6110,36.2151,162.4830,6.530690,0.0590562,0.40904401,183.9755,01/24.0/2022,2000,g  9.0,4.0
# From MPC 78590
P/2012 C3 (PANSTARRS),e,9.0920,135.3677,344.9542,9.748681,0.0323806,0.63011148,359.9758,10/06.0/2011,2000,g 13.0,4.0
# From MPC 84931
P/2012 F2 (PANSTARRS),e,14.7088,227.0124,33.3159,6.332702,0.0618473,0.54175487,198.5094,01/24.0/2022,2000,g 12.0,4.0
# From MPC 79344
P/2012 G1 (PANSTARRS),e,11.6925,282.5440,286.1149,4.172871,0.1156250,0.38072240,359.9500,06/01.0/2012,2000,g 15.0,4.0
# From MPC 80898
P/2012 K3 (Gibbs),e,13.1933,125.8133,172.2218,3.626933,0.1426904,0.42307030,127.0789,01/24.0/2022,2000,g 15.0,4.0
# From MPC 88326
P/2012 NJ (La Sagra),e,84.6418,315.5566,338.3671,8.463660,0.0400283,0.84699929,140.5251,01/24.0/2022,2000,g 14.5,4.0
# From MPC 81470
P/2012 O1 (McNaught),e,7.4294,91.9608,238.2764,3.541184,0.1479045,0.59452130,156.5213,01/24.0/2022,2000,g 17.5,4.0
# From MPC 80899
P/2012 O2 (McNaught),e,24.4806,120.6833,183.4582,3.625018,0.1428035,0.53246655,141.9341,01/24.0/2022,2000,g 17.0,4.0
# From MPC 82720
P/2012 O3 (McNaught),e,16.6160,336.4137,344.7549,4.571922,0.1008221,0.64698624,347.3191,01/24.0/2022,2000,g 16.5,4.0
# From MPC 82320
P/2012 T2 (PANSTARRS),e,12.5623,73.7171,310.5506,5.732290,0.0718145,0.16179343,229.5388,01/24.0/2022,2000,g 10.0,4.0
# From MPC 80900
P/2012 T3 (PANSTARRS),e,9.5641,114.3937,195.5039,6.151245,0.0646040,0.61710737,229.4223,01/24.0/2022,2000,g 15.0,4.0
# From MPC 82720
P/2012 U2 (PANSTARRS),e,10.7574,185.3122,228.2472,7.136223,0.0517013,0.49908389,173.7509,01/24.0/2022,2000,g 12.5,4.0
# From MPC 84024
P/2012 US27 (Siding Spring),e,39.3564,49.1905,0.8060,5.166034,0.0839398,0.64793249,275.9322,01/24.0/2022,2000,g 13.5,4.0
# From MPC 82721
P/2012 WA34 (Lemmon-PANSTARRS),e,6.0780,93.7345,355.8857,4.703726,0.0966142,0.34575854,308.9863,01/24.0/2022,2000,g 13.5,4.0
# From MPC 82721
P/2013 AL76 (Catalina),e,144.8542,145.9932,27.0659,6.497292,0.0595121,0.68630954,198.5688,01/24.0/2022,2000,g 16.0,4.0
# From MPC 91612
P/2013 G1 (Kowalski),e,5.4616,221.3524,51.4992,6.893074,0.0544609,0.51215974,161.4769,01/24.0/2022,2000,g 11.0,4.0
# From MPC 84025
P/2013 G4 (PANSTARRS),e,5.9163,339.6383,214.6541,4.440418,0.1053339,0.40945618,344.5795,01/24.0/2022,2000,g 15.0,4.0
# From MPC 91613
P/2013 J2 (McNaught),e,15.5236,289.3931,37.8009,6.222823,0.0634926,0.65762218,194.8565,01/24.0/2022,2000,g 13.0,4.0
# From MPC 86229
P/2013 N3 (PANSTARRS),e,2.1740,17.4648,323.9319,7.392667,0.0490346,0.59329267,142.0865,01/24.0/2022,2000,g 13.0,4.0
# From MPC 85834
P/2013 N5 (PANSTARRS),e,23.4519,187.1565,176.9145,6.797711,0.0556109,0.73237960,173.7733,01/24.0/2022,2000,g 17.0,4.0
# From MPC 85834
P/2013 P1 (PANSTARRS),e,18.7251,160.5906,138.2089,8.576179,0.0392431,0.60543976,127.5507,01/24.0/2022,2000,g 12.0,4.0
# From MPC 94671
P/2013 R3 (Catalina-PANSTARRS),e,0.8651,341.9948,11.2132,3.033137,0.1865804,0.27542766,213.3349,01/24.0/2022,2000,g 14.0,4.0
# From unp
P/2013 R3-A (Catalina-PANSTARRS),e,0.8645,341.9617,11.2522,3.032995,0.1865935,0.27539726,213.3727,01/24.0/2022,2000,g  9.0,4.0
# From MPEC 2015-M77
P/2013 R3-B (Catalina-PANSTARRS),e,0.8657,342.0176,11.1871,3.033214,0.1865733,0.27544261,213.3146,01/24.0/2022,2000,g  9.0,4.0
# From MPC 85835
P/2013 T1 (PANSTARRS),e,24.2972,10.0806,346.1270,5.858810,0.0695008,0.62415866,215.0439,01/24.0/2022,2000,g 16.5,4.0
# From MPC 86643
P/2013 T2 (Schwartz),e,9.4574,0.8017,345.5456,3.491010,0.1511045,0.50122403,118.6505,01/24.0/2022,2000,g 16.0,4.0
# From MPC 91613
P/2013 W1 (PANSTARRS),e,4.6956,117.8451,1.2598,3.488857,0.1512444,0.59273023,75.7363,01/24.0/2022,2000,g 17.5,4.0
# From MPC101095
P/2013 YG46 (Spacewatch),e,7.8567,48.8393,242.5682,3.275196,0.1662831,0.45480314,302.2633,01/24.0/2022,2000,g 10.0,4.0
# From MPC 89728
P/2014 A2 (Hill),e,24.5370,106.6299,356.1714,5.927372,0.0682984,0.64534882,206.7236,01/24.0/2022,2000,g 15.0,4.0
# From MPC 92981
P/2014 A3 (PANSTARRS),e,13.7053,229.9942,213.8302,4.615406,0.0994007,0.24729813,315.1054,01/24.0/2022,2000,g 12.0,4.0
# From MPEC 2021-Y10
C/2014 B1 (Schwartz),e,28.4114,161.4222,345.6777,4484,0.0000033,0.99787070,0.0000,09/06.9367/2017,2000,g  4.0,4.0
# From MPC102095
P/2014 C1 (TOTAS),e,2.6913,167.7855,23.9018,3.036104,0.1863070,0.44937517,189.2601,01/24.0/2022,2000,g 15.5,4.0
# From MPC 94280
C/2014 F3 (Sheppard-Trujillo),e,6.5814,326.6924,3.8894,15.02046,0.0169309,0.62106655,4.1833,01/24.0/2022,2000,g  6.0,4.0
# From MPC 98560
P/2014 L2 (NEOWISE),e,5.1997,149.3472,182.6863,6.304206,0.0622671,0.64821221,170.8656,01/24.0/2022,2000,g 12.0,4.0
# From MPC 90769
P/2014 L3 (Hill),e,6.2740,115.4800,178.6838,8.173696,0.0421771,0.77337394,116.5566,01/24.0/2022,2000,g 16.0,4.0
# From MPC 91614
P/2014 M4 (PANSTARRS),e,3.3391,263.2241,147.9812,5.871215,0.0692807,0.59489100,179.1116,01/24.0/2022,2000,g 15.0,4.0
# From MPC103844
P/2014 MG4 (Spacewatch-PANSTARRS),e,9.3698,311.7344,299.0821,5.012649,0.0878220,0.25923557,275.9172,01/24.0/2022,2000,g  9.5,4.0
# From MPC 98560
P/2014 O3 (PANSTARRS),e,7.8016,87.6446,204.7153,7.570557,0.0473165,0.38540805,134.1718,01/24.0/2022,2000,g 10.5,4.0
# From MPEC 2021-Y10
C/2014 OG392 (PANSTARRS),e,9.0328,145.7945,254.1189,12.23939,0.0230178,0.18545979,1.2597,01/24.0/2022,2000,g  6.0,4.0
# From MPC 91615
P/2014 R5 (Lemmon-PANSTARRS),e,1.0883,126.5606,213.7411,4.056889,0.1206186,0.41386972,335.0349,01/24.0/2022,2000,g 15.0,4.0
# From MPC 91616
P/2014 U4 (PANSTARRS),e,6.4291,11.8874,347.7770,3.507096,0.1500661,0.46492966,51.6872,01/24.0/2022,2000,g 18.0,4.0
# From MPC 95211
P/2014 V1 (PANSTARRS),e,22.5266,166.2002,177.6134,5.480173,0.0768268,0.53448232,196.3228,01/24.0/2022,2000,g 14.0,4.0
# From MPC 93586
P/2014 W1 (PANSTARRS),e,8.8374,246.2435,152.1825,4.463583,0.1045150,0.38898361,287.4026,01/24.0/2022,2000,g 15.5,4.0
# From MPC105542
P/2014 W4 (PANSTARRS),e,15.2793,33.3733,67.6918,6.593321,0.0582167,0.35255688,129.0884,01/24.0/2022,2000,g 11.0,4.0
# From MPC 94281
P/2014 X1 (Elenin),e,26.0264,61.5331,33.9108,6.207183,0.0637327,0.70896093,164.4742,01/24.0/2022,2000,g 15.0,4.0
# From MPC 92275
P/2015 A3 (PANSTARRS),e,172.5349,277.2406,249.3451,7.811581,0.0451435,0.85074901,114.3444,01/24.0/2022,2000,g 20.0,4.0
# From MPC 99270
P/2015 B1 (PANSTARRS),e,18.0418,352.9611,188.8968,9.495452,0.0336845,0.36719782,78.3356,01/24.0/2022,2000,g  8.5,4.0
# From MPC109141
P/2015 B4 (Lemmon-PANSTARRS),e,1.7612,266.0355,227.3687,8.524028,0.0396038,0.56014324,100.8857,01/24.0/2022,2000,g 11.0,4.0
# From MPC101096
P/2015 C1 (TOTAS-Gibbs),e,13.9040,348.8034,178.2072,6.579294,0.0584030,0.56041649,144.0423,01/24.0/2022,2000,g 12.5,4.0
# From MPC109141
P/2015 D5 (Kowalski),e,20.5165,74.0631,39.7618,8.961460,0.0367397,0.48920114,104.9284,01/24.0/2022,2000,g  9.0,4.0
# From MPC 96866
P/2015 D6 (Lemmon-PANSTARRS),e,20.2018,45.9295,125.0972,7.140099,0.0516592,0.36137524,124.0193,01/24.0/2022,2000,g 10.5,4.0
# From MPEC 2021-P47
C/2015 ER61 (PANSTARRS),e,6.3244,235.0637,68.4764,530.3467,0.0000807,0.99802585,0.0000,05/10.4146/2017,2000,g 11.0,2.0
# From MPEC 2018-BF5
C/2015 E61-B (PANSTARRS),e,6.3259,235.0988,68.5659,1729,0.0000137,0.99939328,0.0000,05/10.3927/2017,2000,g 13.5,2.0
# From MPEC 2021-P47
P/2015 HG16 (PANSTARRS),e,18.7783,58.1256,47.7059,4.755547,0.0950393,0.35240714,264.6967,01/24.0/2022,2000,g 12.5,4.0
# From MPC 95213
P/2015 K5 (PANSTARRS),e,39.9449,134.1851,106.3552,6.724144,0.0565260,0.55260125,137.1691,01/24.0/2022,2000,g 13.5,4.0
# From MPC107684
P/2015 M2 (PANSTARRS),e,3.9711,86.5862,225.7668,7.236564,0.0506297,0.18057736,117.7324,01/24.0/2022,2000,g  8.5,4.0
# From MPEC 2021-P47
C/2015 O1 (PANSTARRS),h,02/20.0119/2018,127.2085,299.8452,89.5993,1.001527,3.725702,2000,6.5,4.0
# From MPC 99819
P/2015 P4 (PANSTARRS),e,8.7173,104.7267,280.5993,6.047666,0.0662708,0.58532337,145.4203,01/24.0/2022,2000,g 14.0,4.0
# From MPC102952
P/2015 PD229 (Cameron-ISON),e,2.0261,342.6382,352.5771,7.187450,0.0511496,0.32804649,120.2889,01/24.0/2022,2000,g 11.5,2.0
# From MPC 96867
P/2015 Q2 (Pimentel),e,146.5259,228.4798,244.5770,7.351631,0.0494457,0.75056996,115.3030,01/24.0/2022,2000,g 15.5,4.0
# From MPC 98562
P/2015 R1 (PANSTARRS),e,22.6887,48.3700,300.5095,5.880184,0.0691222,0.63436758,165.9125,01/24.0/2022,2000,g 14.0,4.0
# From MPC 95734
P/2015 R2 (PANSTARRS),e,15.4848,168.5968,149.8135,4.486944,0.1036998,0.45291274,250.4851,01/24.0/2022,2000,g 14.5,4.0
# From MPC117068
C/2015 T2 (PANSTARRS),e,124.5621,50.9913,30.6661,1756,0.0000134,0.99604831,0.0000,05/18.2119/2017,2000,g  8.0,4.0
# From MPC 96280
P/2015 T3 (PANSTARRS),e,13.0937,120.5019,178.6330,4.326181,0.1095335,0.50818108,359.9227,12/21.0/2014,2000,g 14.0,4.0
# From MPC102953
P/2015 TO19 (Lemmon-PANSTARRS),e,6.4997,321.6448,89.1249,4.553974,0.1014187,0.35878760,218.0378,01/24.0/2022,2000,g 14.0,4.0
# From MPC110080
P/2015 TP200 (LINEAR),e,8.7800,7.0151,82.5008,7.268990,0.0502913,0.53550230,96.2821,01/24.0/2022,2000,g 11.0,4.0
# From MPC115881
C/2015 V1 (PANSTARRS),e,139.2273,197.1566,179.6449,2083,0.0000104,0.99794814,0.0000,12/16.5022/2017,2000,g  6.5,4.0
# From MPC112390
C/2015 V2 (Johnson),h,06/11.2745/2017,49.8172,69.9743,164.9853,1.001756,1.647377,2000,5.0,4.0
# From MPC115881
C/2015 VL62 (Lemmon-Yeung-PANSTARRS),h,08/27.9725/2017,165.8213,95.1603,128.9298,1.001617,2.722945,2000,8.0,4.0
# From MPC101098
P/2015 W2 (Catalina),e,11.6077,294.2114,117.4973,7.292431,0.0500490,0.63464219,115.4004,01/24.0/2022,2000,g 13.0,4.0
# From MPEC 2021-N06
P/2015 X1 (PANSTARRS),e,12.1525,161.7592,218.8282,3.635803,0.1421685,0.41928151,327.8870,01/24.0/2022,2000,g 16.0,4.0
# From MPEC 2021-P47
